{
    "links": {
        "self": "http://www.neowsapp.com/rest/v1/neo/3775040?api_key=iIulBulltgU6a56xZRHN4H3l9WmuAYTsLGpBGhQ2"
    },
    "id": "3775040",
    "neo_reference_id": "3775040",
    "name": "(2017 KK27)",
    "designation": "2017 KK27",
    "nasa_jpl_url": "http://ssd.jpl.nasa.gov/sbdb.cgi?sstr=3775040",
    "absolute_magnitude_h": 25.4,
    "estimated_diameter": {
        "kilometers": {
            "estimated_diameter_min": 0.022108281,
            "estimated_diameter_max": 0.0494356193
        },
        "meters": {
            "estimated_diameter_min": 22.1082810359,
            "estimated_diameter_max": 49.435619262
        },
        "miles": {
            "estimated_diameter_min": 0.0137374447,
            "estimated_diameter_max": 0.0307178602
        },
        "feet": {
            "estimated_diameter_min": 72.5337327539,
            "estimated_diameter_max": 162.1903570994
        }
    },
    "is_potentially_hazardous_asteroid": false,
    "close_approach_data": [
        {
            "close_approach_date": "1993-04-24",
            "close_approach_date_full": "1993-Apr-24 10:44",
            "epoch_date_close_approach": 735648240000,
            "relative_velocity": {
                "kilometers_per_second": "7.8558929874",
                "kilometers_per_hour": "28281.214754555",
                "miles_per_hour": "17572.8470234623"
            },
            "miss_distance": {
                "astronomical": "0.0700684874",
                "lunar": "27.2566415986",
                "kilometers": "10482096.469161838",
                "miles": "6513272.7214678444"
            },
            "orbiting_body": "Mars"
        },
        {
            "close_approach_date": "1995-09-09",
            "close_approach_date_full": "1995-Sep-09 17:13",
            "epoch_date_close_approach": 810666780000,
            "relative_velocity": {
                "kilometers_per_second": "18.9721069611",
                "kilometers_per_hour": "68299.5850601141",
                "miles_per_hour": "42438.7060613803"
            },
            "miss_distance": {
                "astronomical": "0.4368090764",
                "lunar": "169.9187307196",
                "kilometers": "65345707.426107268",
                "miles": "40603939.7648775784"
            },
            "orbiting_body": "Earth"
        },
        {
            "close_approach_date": "1997-04-27",
            "close_approach_date_full": "1997-Apr-27 16:00",
            "epoch_date_close_approach": 862156800000,
            "relative_velocity": {
                "kilometers_per_second": "20.5276486698",
                "kilometers_per_hour": "73899.5352112134",
                "miles_per_hour": "45918.2973094342"
            },
            "miss_distance": {
                "astronomical": "0.4920594459",
                "lunar": "191.4111244551",
                "kilometers": "73611045.020020233",
                "miles": "45739782.3935478954"
            },
            "orbiting_body": "Earth"
        },
        {
            "close_approach_date": "2017-06-04",
            "close_approach_date_full": "2017-Jun-04 01:37",
            "epoch_date_close_approach": 1496540220000,
            "relative_velocity": {
                "kilometers_per_second": "6.4534772254",
                "kilometers_per_hour": "23232.5180113048",
                "miles_per_hour": "14435.7832054133"
            },
            "miss_distance": {
                "astronomical": "0.040103174",
                "lunar": "15.600134686",
                "kilometers": "5999349.41063938",
                "miles": "3727822.862328244"
            },
            "orbiting_body": "Earth"
        },
        {
            "close_approach_date": "2028-05-03",
            "close_approach_date_full": "2028-May-03 13:04",
            "epoch_date_close_approach": 1840971840000,
            "relative_velocity": {
                "kilometers_per_second": "17.3491130692",
                "kilometers_per_hour": "62456.8070491895",
                "miles_per_hour": "38808.2310245367"
            },
            "miss_distance": {
                "astronomical": "0.384415629",
                "lunar": "149.537679681",
                "kilometers": "57507759.29311023",
                "miles": "35733664.632691974"
            },
            "orbiting_body": "Earth"
        }
    ],
    "orbital_data": {
        "orbit_id": "6",
        "orbit_determination_date": "2017-06-04 06:17:48",
        "first_observation_date": "2017-05-24",
        "last_observation_date": "2017-06-02",
        "data_arc_in_days": 9,
        "observations_used": 61,
        "orbit_uncertainty": "7",
        "minimum_orbit_intersection": ".0112685",
        "jupiter_tisserand_invariant": "4.495",
        "epoch_osculation": "2459000.5",
        "eccentricity": ".3339579957521008",
        "semi_major_axis": "1.492462898078",
        "inclination": "1.951854700569349",
        "ascending_node_longitude": "146.8552905607956",
        "orbital_period": "665.9685835895186",
        "perihelion_distance": ".994042979901499",
        "perihelion_argument": "136.82956037",
        "aphelion_distance": "1.9908828162545",
        "perihelion_time": "2459266.471955112290",
        "mean_anomaly": "216.2245934720527",
        "mean_motion": ".5405660400069147",
        "equinox": "J2000",
        "orbit_class": {
            "orbit_class_type": "APO",
            "orbit_class_description": "Near-Earth asteroid orbits which cross the Earth’s orbit similar to that of 1862 Apollo",
            "orbit_class_range": "a (semi-major axis) > 1.0 AU; q (perihelion) < 1.017 AU"
        }
    },
    "is_sentry_object": false
}